STARLINK-31697          
1 59583U 24076V   25128.92434219 -.00005567  00000+0 -19295-3 0  9994
2 59583  42.9994 290.0797 0002278 278.4998  81.5595 15.27573212 59720
STARLINK-31662          
1 59584U 24076W   25128.93846926 -.00000928  00000+0 -24203-4 0  9990
2 59584  43.0062 290.1754 0001622 282.1527  77.9143 15.27582950 59890
STARLINK-31702          
1 59585U 24076X   25128.17054816  .00001264  00000+0  55466-4 0  9993
2 59585  42.9983 294.7412 0000487 262.0046  98.0751 15.27568442 59779
STARLINK-31704          
1 59586U 24076Y   25129.25002315  .00067023  00000+0  24257-2 0  9998
2 59586  43.0005 245.0111 0001364 274.1658 253.4161 15.27544269 60382
NEONSAT-1               
1 59587U 24077A   25129.17032455  .00010099  00000+0  36576-3 0  9998
2 59587  97.3795 209.8408 0012161  40.8070 319.4078 15.28513850 57830
ACS3                    
1 59588U 24077B   25128.97321086  .00013070  00000+0  13000-1 0  9994
2 59588  97.4806 131.5820 0050227  78.4091 282.2698 13.77589481 52092
GSAT0225 (GALILEO 29)   
1 59598U 24079A   25128.36972788  .00000049  00000+0  00000+0 0  9997
2 59598  54.8749 112.4035 0002897 264.5302 274.4812  1.70474727  6417
GSAT0227 (GALILEO 30)   
1 59600U 24079C   25127.67479676  .00000050  00000+0  00000+0 0  9994
2 59600  54.8687 112.4228 0000674 348.0639  11.9250  1.70474555  6451
STARLINK-31770          
1 59601U 24080A   25128.91668981  .00061341  00000+0  21667-2 0  9999
2 59601  42.9993 319.4023 0001618 277.2791 248.4186 15.28378104  5919
STARLINK-31778          
1 59602U 24080B   25128.94473110 -.00002047  00000+0 -41713-4 0  9997
2 59602  43.0037 319.1466 0001452 295.4098  64.6608 15.40716731 59144
STARLINK-31776          
1 59603U 24080C   25127.83816035 -.00031362  00000+0 -11300-2 0  9991
2 59603  42.9988 328.9164 0001523 225.3838 134.6889 15.27722891 58882
STARLINK-31765          
1 59604U 24080D   25128.82404470  .00000822  00000+0  26931-4 0  9991
2 59604  42.9992 319.9630 0001404 272.2440  87.8255 15.40697858 57901
STARLINK-31767          
1 59605U 24080E   25128.68725420 -.00220273  00000+0 -64404-2 0  9998
2 59605  43.0004 320.6585 0003486 181.1828 178.9019 15.35413014 59104
STARLINK-31782          
1 59606U 24080F   25128.82925017  .00000751  00000+0  36829-4 0  9996
2 59606  43.0049 323.4496 0001923 290.5252  69.5393 15.27578787 57867
STARLINK-31755          
1 59607U 24080G   25128.83310631  .00002123  00000+0  86655-4 0  9995
2 59607  43.0002 323.4837 0001019 280.0001  80.0736 15.27581748 59084
STARLINK-31585          
1 59608U 24080H   25128.51999037  .00070265  00000+0  16154-2 0  9991
2 59608  43.0001 321.1113 0003954 247.1808 112.8631 15.41764211 59087
STARLINK-31667          
1 59609U 24080J   25128.91562024 -.00000659  00000+0 -84931-5 0  9991
2 59609  43.0037 318.9216 0002107 329.9851  30.0885 15.40697639 59148
STARLINK-31729          
1 59610U 24080K   25128.81957280  .00007281  00000+0  18148-3 0  9995
2 59610  43.0022 319.9256 0001489 284.8196  75.2496 15.40687663 59125
STARLINK-31448          
1 59611U 24080L   25128.95817990  .00000511  00000+0  19501-4 0  9998
2 59611  43.0016 319.2512 0001388 288.6309  71.4397 15.40705887 59142
STARLINK-31748          
1 59612U 24080M   25128.23386696 -.00001940  00000+0 -39180-4 0  9998
2 59612  43.0070 323.2709 0001196 290.1304  69.9424 15.40709856 58980
STARLINK-31746          
1 59613U 24080N   25128.96772116  .00002372  00000+0  95694-4 0  9995
2 59613  43.0007 322.7461 0002178 257.2400 102.8208 15.27579868 59107
STARLINK-31762          
1 59614U 24080P   25129.16668981 -.01090519  00000+0 -36101-1 0  9991
2 59614  42.9999 317.9079 0001190 269.4961 225.6817 15.33421810 59174
STARLINK-31761          
1 59615U 24080Q   25128.83872575 -.00000262  00000+0  12275-7 0  9997
2 59615  43.0030 320.0090 0001139 286.9212  73.1514 15.27569441 57902
STARLINK-31768          
1 59616U 24080R   25128.91668981 -.01033238  00000+0 -33081-1 0  9994
2 59616  43.0000 319.3559 0001152 267.2045 277.4504 15.34319751  5863
STARLINK-31769          
1 59617U 24080S   25129.16668981 -.00408684  00000+0 -15197-1 0  9991
2 59617  42.9992 318.0329 0001667 274.3045 167.7075 15.28591529 59178
STARLINK-31784          
1 59618U 24080T   25128.23434915 -.00002691  00000+0 -88275-4 0  9995
2 59618  43.0018 326.7241 0001137 293.4825  66.5907 15.27583862 58943
STARLINK-31777          
1 59619U 24080U   25128.82668213  .00000850  00000+0  40398-4 0  9998
2 59619  43.0013 323.4319 0001021 299.2950  60.7800 15.27577203 59080
STARLINK-31771          
1 59620U 24080V   25128.83486693 -.00005151  00000+0 -17765-3 0  9993
2 59620  43.0045 319.9961 0001128 283.6622  76.4104 15.27603368 59073
STARLINK-31758          
1 59621U 24080W   25127.85385441  .00000879  00000+0  28303-4 0  9995
2 59621  43.0027 325.5797 0001638 285.1792  74.8883 15.40701197 57758
STARLINK-31774          
1 59622U 24080X   25128.95146108  .00001880  00000+0  52262-4 0  9997
2 59622  43.0027 319.1954 0001805 284.4064  75.6592 15.40700491 59140
