OBJECT_NAME,OBJECT_ID,EPOCH,MEAN_MOTION,ECCENTRICITY,INCLINATION,RA_OF_ASC_NODE,ARG_OF_PERICENTER,MEAN_ANOMALY,EPHEMERIS_TYPE,CLASSIFICATION_TYPE,NORAD_CAT_ID,ELEMENT_SET_NO,REV_AT_EPOCH,BSTAR,MEAN_MOTION_DOT,MEAN_MOTION_DDOT
STARLINK-31697,2024-076V,2025-05-08T22:11:03.165216,15.27573212,.0002278,42.9994,290.0797,278.4998,81.5595,0,U,59583,999,5972,-.19295E-3,-.5567E-4,0
STARLINK-31662,2024-076W,2025-05-08T22:31:23.744064,15.27582950,.0001622,43.0062,290.1754,282.1527,77.9143,0,U,59584,999,5989,-.24203E-4,-.928E-5,0
STARLINK-31702,2024-076X,2025-05-08T04:05:35.361024,15.27568442,.0000487,42.9983,294.7412,262.0046,98.0751,0,U,59585,999,5977,.55466E-4,.1264E-4,0
STARLINK-31704,2024-076Y,2025-05-09T06:00:02.000160,15.27544269,.0001364,43.0005,245.0111,274.1658,253.4161,0,U,59586,999,6038,.24257E-2,.67023E-3,0
NEONSAT-1,2024-077A,2025-05-09T04:05:16.041120,15.28513850,.0012161,97.3795,209.8408,40.8070,319.4078,0,U,59587,999,5783,.36576E-3,.10099E-3,0
ACS3,2024-077B,2025-05-08T23:21:25.418304,13.77589481,.0050227,97.4806,131.5820,78.4091,282.2698,0,U,59588,999,5209,.13E-1,.1307E-3,0
GSAT0225 (GALILEO 29),2024-079A,2025-05-08T08:52:24.488832,1.70474727,.0002897,54.8749,112.4035,264.5302,274.4812,0,U,59598,999,641,0,.49E-6,0
GSAT0227 (GALILEO 30),2024-079C,2025-05-07T16:11:42.440064,1.70474555,.0000674,54.8687,112.4228,348.0639,11.9250,0,U,59600,999,645,0,.5E-6,0
STARLINK-31770,2024-080A,2025-05-08T22:00:01.999584,15.28378104,.0001618,42.9993,319.4023,277.2791,248.4186,0,U,59601,999,591,.21667E-2,.61341E-3,0
STARLINK-31778,2024-080B,2025-05-08T22:40:24.767040,15.40716731,.0001452,43.0037,319.1466,295.4098,64.6608,0,U,59602,999,5914,-.41713E-4,-.2047E-4,0
STARLINK-31776,2024-080C,2025-05-07T20:06:57.054240,15.27722891,.0001523,42.9988,328.9164,225.3838,134.6889,0,U,59603,999,5888,-.113E-2,-.31362E-3,0
STARLINK-31765,2024-080D,2025-05-08T19:46:37.462080,15.40697858,.0001404,42.9992,319.9630,272.2440,87.8255,0,U,59604,999,5790,.26931E-4,.822E-5,0
STARLINK-31767,2024-080E,2025-05-08T16:29:38.762880,15.35413014,.0003486,43.0004,320.6585,181.1828,178.9019,0,U,59605,999,5910,-.64404E-2,-.220273E-2,0
STARLINK-31782,2024-080F,2025-05-08T19:54:07.214688,15.27578787,.0001923,43.0049,323.4496,290.5252,69.5393,0,U,59606,999,5786,.36829E-4,.751E-5,0
STARLINK-31755,2024-080G,2025-05-08T19:59:40.385184,15.27581748,.0001019,43.0002,323.4837,280.0001,80.0736,0,U,59607,999,5908,.86655E-4,.2123E-4,0
STARLINK-31585,2024-080H,2025-05-08T12:28:47.167968,15.41764211,.0003954,43.0001,321.1113,247.1808,112.8631,0,U,59608,999,5908,.16154E-2,.70265E-3,0
STARLINK-31667,2024-080J,2025-05-08T21:58:29.588736,15.40697639,.0002107,43.0037,318.9216,329.9851,30.0885,0,U,59609,999,5914,-.84931E-5,-.659E-5,0
STARLINK-31729,2024-080K,2025-05-08T19:40:11.089920,15.40687663,.0001489,43.0022,319.9256,284.8196,75.2496,0,U,59610,999,5912,.18148E-3,.7281E-4,0
STARLINK-31448,2024-080L,2025-05-08T22:59:46.743360,15.40705887,.0001388,43.0016,319.2512,288.6309,71.4397,0,U,59611,999,5914,.19501E-4,.511E-5,0
STARLINK-31748,2024-080M,2025-05-08T05:36:46.105344,15.40709856,.0001196,43.0070,323.2709,290.1304,69.9424,0,U,59612,999,5898,-.3918E-4,-.194E-4,0
STARLINK-31746,2024-080N,2025-05-08T23:13:31.108224,15.27579868,.0002178,43.0007,322.7461,257.2400,102.8208,0,U,59613,999,5910,.95694E-4,.2372E-4,0
STARLINK-31762,2024-080P,2025-05-09T04:00:01.999584,15.33421810,.000119,42.9999,317.9079,269.4961,225.6817,0,U,59614,999,5917,-.36101E-1,-.1090519E-1,0
STARLINK-31761,2024-080Q,2025-05-08T20:07:45.904800,15.27569441,.0001139,43.0030,320.0090,286.9212,73.1514,0,U,59615,999,5790,.12275E-7,-.262E-5,0
STARLINK-31768,2024-080R,2025-05-08T22:00:01.999584,15.34319751,.0001152,43.0000,319.3559,267.2045,277.4504,0,U,59616,999,586,-.33081E-1,-.1033238E-1,0
STARLINK-31769,2024-080S,2025-05-09T04:00:01.999584,15.28591529,.0001667,42.9992,318.0329,274.3045,167.7075,0,U,59617,999,5917,-.15197E-1,-.408684E-2,0
STARLINK-31784,2024-080T,2025-05-08T05:37:27.766560,15.27583862,.0001137,43.0018,326.7241,293.4825,66.5907,0,U,59618,999,5894,-.88275E-4,-.2691E-4,0
STARLINK-31777,2024-080U,2025-05-08T19:50:25.336032,15.27577203,.0001021,43.0013,323.4319,299.2950,60.7800,0,U,59619,999,5908,.40398E-4,.85E-5,0
STARLINK-31771,2024-080V,2025-05-08T20:02:12.502752,15.27603368,.0001128,43.0045,319.9961,283.6622,76.4104,0,U,59620,999,5907,-.17765E-3,-.5151E-4,0
STARLINK-31758,2024-080W,2025-05-07T20:29:33.021024,15.40701197,.0001638,43.0027,325.5797,285.1792,74.8883,0,U,59621,999,5775,.28303E-4,.879E-5,0
STARLINK-31774,2024-080X,2025-05-08T22:50:06.237312,15.40700491,.0001805,43.0027,319.1954,284.4064,75.6592,0,U,59622,999,5914,.52262E-4,.188E-4,0
